GLOBALSTAR M094         
1 39074U 13005C   25261.45555727 -.00000096  00000+0  43701-4 0  9992
2 39074  51.9945 258.1434 0000571  89.4662 270.6270 12.62269891584156
GLOBALSTAR M096         
1 39075U 13005D   25261.15198609 -.00000077  00000+0  14872-3 0  9997
2 39075  52.0080 307.6562 0000648  99.5782 260.5158 12.62266847583038
GLOBALSTAR M078         
1 39076U 13005E   25261.68019466 -.00000097  00000+0  35691-4 0  9994
2 39076  51.9893  30.4286 0001280  57.3513 302.7477 12.62260155581723
GLOBALSTAR M095         
1 39077U 13005F   25261.62700040 -.00000110  00000+0 -35725-4 0  9999
2 39077  52.0103  27.8083 0001190  86.1157 273.9846 12.62259796581570
GLOBALSTAR M087         
1 52888U 22064A   25261.87839831 -.00000107  00000+0 -20250-4 0  9990
2 52888  51.9987 168.4432 0000840  72.2565 287.8393 12.62288579156876
